[{"OBJECT_NAME":"STARLINK-31572","OBJECT_ID":"2024-057P","EPOCH":"2026-03-09T09:34:40.735776","MEAN_MOTION":15.275784,"ECCENTRICITY":3.329e-5,"INCLINATION":42.9963,"RA_OF_ASC_NODE":200.04,"ARG_OF_PERICENTER":181.9274,"MEAN_ANOMALY":178.1577,"EPHEMERIS_TYPE":0,"CLASSIFICATION_TYPE":"U","NORAD_CAT_ID":59333,"ELEMENT_SET_NO":999,"REV_AT_EPOCH":10966,"BSTAR":-6.05419e-5,"MEAN_MOTION_DOT":-1.927e-5,"MEAN_MOTION_DDOT":0},{"OBJECT_NAME":"CZ-4 DEB","OBJECT_ID":"2003-049H","EPOCH":"2026-03-08T08:27:28.944576","MEAN_MOTION":15.27137095,"ECCENTRICITY":0.00307627,"INCLINATION":98.6284,"RA_OF_ASC_NODE":272.5918,"ARG_OF_PERICENTER":169.0311,"MEAN_ANOMALY":191.1601,"EPHEMERIS_TYPE":0,"CLASSIFICATION_TYPE":"U","NORAD_CAT_ID":35381,"ELEMENT_SET_NO":999,"REV_AT_EPOCH":18390,"BSTAR":0.0032047887,"MEAN_MOTION_DOT":0.00087287,"MEAN_MOTION_DDOT":0}]
